{
  "type": "FeatureCollection",
  "features": [
    {
      "type": "Feature",
      "properties": {
        "norad_id": 31307,
        "name": "GALAXY 17 (G-17)",
        "group": "intelsat",
        "lat": 1.765819604880863,
        "lon": 127.03339760828572,
        "alt_km": 35797.56958062724,
        "timestamp": "2025-12-08T08:59:00.439630+00:00",
        "meta_object_name": "GALAXY 17 (G-17)",
        "meta_object_id": "2007-016B",
        "meta_epoch": "2025-12-07T20:04:43.987008",
        "meta_mean_motion": 1.00270175,
        "meta_eccentricity": 0.00060149,
        "meta_inclination": 2.4874,
        "meta_ra_of_asc_node": 82.3394,
        "meta_arg_of_pericenter": 160.7655,
        "meta_mean_anomaly": 49.9245,
        "meta_ephemeris_type": 0,
        "meta_classification_type": "U",
        "meta_norad_cat_id": 31307,
        "meta_element_set_no": 999,
        "meta_rev_at_epoch": 6788,
        "meta_bstar": 0,
        "meta_mean_motion_dot": -2.04e-06,
        "meta_mean_motion_ddot": 0,
        "tle_line1": "1 31307U 07016B   25341.83662022 -.00000204  00000+0  00000+0 0  9997",
        "tle_line2": "2 31307   2.4874  82.3394 0006014 160.7655  49.9245  1.00270175 67886"
      },
      "geometry": {
        "type": "Point",
        "coordinates": [
          127.03339760828572,
          1.765819604880863
        ]
      }
    },
    {
      "type": "Feature",
      "properties": {
        "norad_id": 31862,
        "name": "DIRECTV 10",
        "group": "intelsat",
        "lat": -0.0010493294470101985,
        "lon": 109.3358082723444,
        "alt_km": 35786.785753077675,
        "timestamp": "2025-12-08T08:59:00.439642+00:00",
        "meta_object_name": "DIRECTV 10",
        "meta_object_id": "2007-032A",
        "meta_epoch": "2025-12-07T21:42:19.639872",
        "meta_mean_motion": 1.00270272,
        "meta_eccentricity": 4.621e-05,
        "meta_inclination": 0.0059,
        "meta_ra_of_asc_node": 92.6501,
        "meta_arg_of_pericenter": 114.4656,
        "meta_mean_anomaly": 92.5999,
        "meta_ephemeris_type": 0,
        "meta_classification_type": "U",
        "meta_norad_cat_id": 31862,
        "meta_element_set_no": 999,
        "meta_rev_at_epoch": 4367,
        "meta_bstar": 0,
        "meta_mean_motion_dot": -1e-06,
        "meta_mean_motion_ddot": 0,
        "tle_line1": "1 31862U 07032A   25341.90439398 -.00000100  00000+0  00000+0 0  9992",
        "tle_line2": "2 31862   0.0059  92.6501 0000462 114.4656  92.5999  1.00270272 43672"
      },
      "geometry": {
        "type": "Point",
        "coordinates": [
          109.3358082723444,
          -0.0010493294470101985
        ]
      }
    },
    {
      "type": "Feature",
      "properties": {
        "norad_id": 32253,
        "name": "INTELSAT 11 (IS-11)",
        "group": "intelsat",
        "lat": 0.8653923171868906,
        "lon": 96.96040077771008,
        "alt_km": 36165.997923097566,
        "timestamp": "2025-12-08T08:59:00.439654+00:00",
        "meta_object_name": "INTELSAT 11 (IS-11)",
        "meta_object_id": "2007-044B",
        "meta_epoch": "2025-12-07T21:39:12.438720",
        "meta_mean_motion": 0.99047473,
        "meta_eccentricity": 0.00091913,
        "meta_inclination": 3.0673,
        "meta_ra_of_asc_node": 81.0279,
        "meta_arg_of_pericenter": 163.8745,
        "meta_mean_anomaly": 43.8037,
        "meta_ephemeris_type": 0,
        "meta_classification_type": "U",
        "meta_norad_cat_id": 32253,
        "meta_element_set_no": 999,
        "meta_rev_at_epoch": 6655,
        "meta_bstar": 0,
        "meta_mean_motion_dot": 6.2e-07,
        "meta_mean_motion_ddot": 0,
        "tle_line1": "1 32253U 07044B   25341.90222730  .00000062  00000+0  00000+0 0  9996",
        "tle_line2": "2 32253   3.0673  81.0279 0009191 163.8745  43.8037  0.99047473 66557"
      },
      "geometry": {
        "type": "Point",
        "coordinates": [
          96.96040077771008,
          0.8653923171868906
        ]
      }
    },
    {
      "type": "Feature",
      "properties": {
        "norad_id": 32388,
        "name": "HORIZONS-2",
        "group": "intelsat",
        "lat": 1.7450312138783615,
        "lon": 138.28869677790692,
        "alt_km": 35799.96019340383,
        "timestamp": "2025-12-08T08:59:00.439666+00:00",
        "meta_object_name": "HORIZONS-2",
        "meta_object_id": "2007-063B",
        "meta_epoch": "2025-12-07T20:07:58.677312",
        "meta_mean_motion": 1.00270849,
        "meta_eccentricity": 0.00050634,
        "meta_inclination": 2.1084,
        "meta_ra_of_asc_node": 83.011,
        "meta_arg_of_pericenter": 185.4181,
        "meta_mean_anomaly": 36.6416,
        "meta_ephemeris_type": 0,
        "meta_classification_type": "U",
        "meta_norad_cat_id": 32388,
        "meta_element_set_no": 999,
        "meta_rev_at_epoch": 6589,
        "meta_bstar": 0,
        "meta_mean_motion_dot": -2.51e-06,
        "meta_mean_motion_ddot": 0,
        "tle_line1": "1 32388U 07063B   25341.83887358 -.00000251  00000+0  00000+0 0  9992",
        "tle_line2": "2 32388   2.1084  83.0110 0005063 185.4181  36.6416  1.00270849 65891"
      },
      "geometry": {
        "type": "Point",
        "coordinates": [
          138.28869677790692,
          1.7450312138783615
        ]
      }
    },
    {
      "type": "Feature",
      "properties": {
        "norad_id": 32729,
        "name": "DIRECTV 11",
        "group": "intelsat",
        "lat": 0.0001270396457430519,
        "lon": 112.92135911765577,
        "alt_km": 35786.09978125005,
        "timestamp": "2025-12-08T08:59:00.439679+00:00",
        "meta_object_name": "DIRECTV 11",
        "meta_object_id": "2008-013A",
        "meta_epoch": "2025-12-07T20:00:44.370432",
        "meta_mean_motion": 1.00269303,
        "meta_eccentricity": 5.914e-05,
        "meta_inclination": 0.0132,
        "meta_ra_of_asc_node": 219.1388,
        "meta_arg_of_pericenter": 327.4216,
        "meta_mean_anomaly": 91.2778,
        "meta_ephemeris_type": 0,
        "meta_classification_type": "U",
        "meta_norad_cat_id": 32729,
        "meta_element_set_no": 999,
        "meta_rev_at_epoch": 4367,
        "meta_bstar": 0,
        "meta_mean_motion_dot": -1.22e-06,
        "meta_mean_motion_ddot": 0,
        "tle_line1": "1 32729U 08013A   25341.83384688 -.00000122  00000+0  00000+0 0  9992",
        "tle_line2": "2 32729   0.0132 219.1388 0000591 327.4216  91.2778  1.00269303 43671"
      },
      "geometry": {
        "type": "Point",
        "coordinates": [
          112.92135911765577,
          0.0001270396457430519
        ]
      }
    },
    {
      "type": "Feature",
      "properties": {
        "norad_id": 32951,
        "name": "GALAXY 18 (G-18)",
        "group": "intelsat",
        "lat": 0.02563854938826034,
        "lon": 89.10799646666429,
        "alt_km": 35800.33245926085,
        "timestamp": "2025-12-08T08:59:00.439691+00:00",
        "meta_object_name": "GALAXY 18 (G-18)",
        "meta_object_id": "2008-024A",
        "meta_epoch": "2025-12-07T14:45:38.501280",
        "meta_mean_motion": 1.00270269,
        "meta_eccentricity": 0.00033137,
        "meta_inclination": 0.0216,
        "meta_ra_of_asc_node": 58.2421,
        "meta_arg_of_pericenter": 202.2004,
        "meta_mean_anomaly": 274.5904,
        "meta_ephemeris_type": 0,
        "meta_classification_type": "U",
        "meta_norad_cat_id": 32951,
        "meta_element_set_no": 999,
        "meta_rev_at_epoch": 4393,
        "meta_bstar": 0,
        "meta_mean_motion_dot": 2.9e-07,
        "meta_mean_motion_ddot": 0,
        "tle_line1": "1 32951U 08024A   25341.61502895  .00000029  00000+0  00000+0 0  9994",
        "tle_line2": "2 32951   0.0216  58.2421 0003313 202.2004 274.5904  1.00270269 43930"
      },
      "geometry": {
        "type": "Point",
        "coordinates": [
          89.10799646666429,
          0.02563854938826034
        ]
      }
    },
    {
      "type": "Feature",
      "properties": {
        "norad_id": 33153,
        "name": "INTELSAT 25 (IS-25)",
        "group": "intelsat",
        "lat": 2.1893136429165665,
        "lon": -179.41868814791786,
        "alt_km": 35784.11262543821,
        "timestamp": "2025-12-08T08:59:00.439703+00:00",
        "meta_object_name": "INTELSAT 25 (IS-25)",
        "meta_object_id": "2008-034A",
        "meta_epoch": "2025-12-07T22:02:46.339296",
        "meta_mean_motion": 1.00270512,
        "meta_eccentricity": 0.00054347,
        "meta_inclination": 2.215,
        "meta_ra_of_asc_node": 82.6985,
        "meta_arg_of_pericenter": 182.776,
        "meta_mean_anomaly": 110.659,
        "meta_ephemeris_type": 0,
        "meta_classification_type": "U",
        "meta_norad_cat_id": 33153,
        "meta_element_set_no": 999,
        "meta_rev_at_epoch": 6377,
        "meta_bstar": 0,
        "meta_mean_motion_dot": -2.22e-06,
        "meta_mean_motion_ddot": 0,
        "tle_line1": "1 33153U 08034A   25341.91859189 -.00000222  00000+0  00000+0 0  9990",
        "tle_line2": "2 33153   2.2150  82.6985 0005434 182.7760 110.6590  1.00270512 63775"
      },
      "geometry": {
        "type": "Point",
        "coordinates": [
          -179.41868814791786,
          2.1893136429165665
        ]
      }
    }
  ]
}